start=new Date('2022-05-31T00:00:00.000Z').valueOf();
sats=[{"APOAPSIS":"548.424","TIME_SYSTEM":"UTC","COUNTRY_CODE":"US","INCLINATION":"53.0548","MEAN_ANOMALY":"284.0550","ELEMENT_SET_NO":"999","OBJECT_TYPE":"PAYLOAD","LAUNCH_DATE":"2020-06-13","RCS_SIZE":"LARGE","EPHEMERIS_TYPE":"0","TLE_LINE1":"1 45772U 20038AU  22150.70569129 -.00002019  00000-0 -11670-3 0  9999","PERIAPSIS":"546.080","SITE":"AFETR","CLASSIFICATION_TYPE":"U","EPOCH":"2022-05-30T16:56:11.727456","PERIOD":"95.593","RA_OF_ASC_NODE":"267.1076","NORAD_CAT_ID":"45772","ECCENTRICITY":"0.00016920","MEAN_ELEMENT_THEORY":"SGP4","MEAN_MOTION_DDOT":"0.0000000000000","FILE":"3472994","CENTER_NAME":"EARTH","ARG_OF_PERICENTER":"76.0627","SEMIMAJOR_AXIS":"6925.387","MEAN_MOTION":"15.06387484","BSTAR":"-0.00011670000000","TLE_LINE2":"2 45772  53.0548 267.1076 0001692  76.0627 284.0550 15.06387484108916","OBJECT_ID":"2020-038AU","OBJECT_NAME":"STARLINK-1470","GP_ID":"204975564","REF_FRAME":"TEME","REV_AT_EPOCH":"10891","DECAY_DATE":null,"MEAN_MOTION_DOT":"-0.00002019"},{"SITE":"AFETR","CLASSIFICATION_TYPE":"U","TLE_LINE1":"1 45773U 20038AV  22150.69831293 -.00001816  00000-0 -10305-3 0  9990","PERIAPSIS":"546.063","MEAN_ANOMALY":"247.8488","ELEMENT_SET_NO":"999","LAUNCH_DATE":"2020-06-13","OBJECT_TYPE":"PAYLOAD","TIME_SYSTEM":"UTC","APOAPSIS":"548.443","INCLINATION":"53.0562","COUNTRY_CODE":"US","EPHEMERIS_TYPE":"0","RCS_SIZE":"LARGE","ECCENTRICITY":"0.00017190","RA_OF_ASC_NODE":"267.1582","NORAD_CAT_ID":"45773","MEAN_ELEMENT_THEORY":"SGP4","MEAN_MOTION_DDOT":"0.0000000000000","EPOCH":"2022-05-30T16:45:34.237152","PERIOD":"95.593","ARG_OF_PERICENTER":"112.2684","MEAN_MOTION":"15.06387131","SEMIMAJOR_AXIS":"6925.388","FILE":"3472994","CENTER_NAME":"EARTH","REF_FRAME":"TEME","GP_ID":"204975813","MEAN_MOTION_DOT":"-0.00001816","REV_AT_EPOCH":"10891","DECAY_DATE":null,"TLE_LINE2":"2 45773  53.0562 267.1582 0001719 112.2684 247.8488 15.06387131108917","BSTAR":"-0.00010305000000","OBJECT_NAME":"STARLINK-1482","OBJECT_ID":"2020-038AV"},{"EPHEMERIS_TYPE":"0","RCS_SIZE":"LARGE","OBJECT_TYPE":"PAYLOAD","LAUNCH_DATE":"2020-06-13","ELEMENT_SET_NO":"999","MEAN_ANOMALY":"303.9049","INCLINATION":"53.0563","COUNTRY_CODE":"US","APOAPSIS":"548.338","TIME_SYSTEM":"UTC","CLASSIFICATION_TYPE":"U","SITE":"AFETR","PERIAPSIS":"546.183","TLE_LINE1":"1 45774U 20038AW  22150.60248713 -.00002305  00000-0 -13597-3 0  9991","PERIOD":"95.593","EPOCH":"2022-05-30T14:27:34.888032","MEAN_MOTION_DDOT":"0.0000000000000","MEAN_ELEMENT_THEORY":"SGP4","ECCENTRICITY":"0.00015560","NORAD_CAT_ID":"45774","RA_OF_ASC_NODE":"267.5900","CENTER_NAME":"EARTH","FILE":"3472495","MEAN_MOTION":"15.06384566","SEMIMAJOR_AXIS":"6925.396","ARG_OF_PERICENTER":"56.2088","OBJECT_NAME":"STARLINK-1485","OBJECT_ID":"2020-038AW","BSTAR":"-0.00013597000000","TLE_LINE2":"2 45774  53.0563 267.5900 0001556  56.2088 303.9049 15.06384566108894","MEAN_MOTION_DOT":"-0.00002305","DECAY_DATE":null,"REV_AT_EPOCH":"10889","GP_ID":"204939844","REF_FRAME":"TEME"},{"MEAN_ANOMALY":"282.8708","ELEMENT_SET_NO":"999","LAUNCH_DATE":"2020-06-13","OBJECT_TYPE":"PAYLOAD","TIME_SYSTEM":"UTC","APOAPSIS":"548.322","INCLINATION":"53.0557","COUNTRY_CODE":"US","EPHEMERIS_TYPE":"0","RCS_SIZE":"LARGE","SITE":"AFETR","CLASSIFICATION_TYPE":"U","TLE_LINE1":"1 45775U 20038AX  22150.60617384 -.00001202  00000-0 -61832-4 0  9997","PERIAPSIS":"546.199","EPOCH":"2022-05-30T14:32:53.419776","PERIOD":"95.593","ECCENTRICITY":"0.00015330","RA_OF_ASC_NODE":"267.5720","NORAD_CAT_ID":"45775","MEAN_ELEMENT_THEORY":"SGP4","MEAN_MOTION_DDOT":"0.0000000000000","FILE":"3472495","CENTER_NAME":"EARTH","ARG_OF_PERICENTER":"77.2452","MEAN_MOTION":"15.06384622","SEMIMAJOR_AXIS":"6925.396","TLE_LINE2":"2 45775  53.0557 267.5720 0001533  77.2452 282.8708 15.06384622108903","BSTAR":"-0.00006183200000","OBJECT_NAME":"STARLINK-1488","OBJECT_ID":"2020-038AX","REF_FRAME":"TEME","GP_ID":"204940095","MEAN_MOTION_DOT":"-0.00001202","REV_AT_EPOCH":"10890","DECAY_DATE":null},{"RA_OF_ASC_NODE":"267.5269","NORAD_CAT_ID":"45776","ECCENTRICITY":"0.00016110","MEAN_MOTION_DDOT":"0.0000000000000","MEAN_ELEMENT_THEORY":"SGP4","EPOCH":"2022-05-30T14:43:29.964000","PERIOD":"95.593","TLE_LINE1":"1 45776U 20038AY  22150.61354125 -.00002203  00000-0 -12909-3 0  9992","PERIAPSIS":"546.147","CLASSIFICATION_TYPE":"U","SITE":"AFETR","APOAPSIS":"548.378","TIME_SYSTEM":"UTC","COUNTRY_CODE":"US","INCLINATION":"53.0558","ELEMENT_SET_NO":"999","MEAN_ANOMALY":"301.7515","OBJECT_TYPE":"PAYLOAD","LAUNCH_DATE":"2020-06-13","RCS_SIZE":"LARGE","EPHEMERIS_TYPE":"0","GP_ID":"204938843","REF_FRAME":"TEME","REV_AT_EPOCH":"10890","DECAY_DATE":null,"MEAN_MOTION_DOT":"-0.00002203","BSTAR":"-0.00012909000000","TLE_LINE2":"2 45776  53.0558 267.5269 0001611  58.3631 301.7515 15.06384042108902","OBJECT_ID":"2020-038AY","OBJECT_NAME":"STARLINK-1489","ARG_OF_PERICENTER":"58.3631","SEMIMAJOR_AXIS":"6925.397","MEAN_MOTION":"15.06384042","FILE":"3472495","CENTER_NAME":"EARTH"},{"PERIOD":"95.593","EPOCH":"2022-05-30T19:24:48.117600","ECCENTRICITY":"0.00016180","NORAD_CAT_ID":"45777","RA_OF_ASC_NODE":"266.6682","MEAN_MOTION_DDOT":"0.0000000000000","MEAN_ELEMENT_THEORY":"SGP4","LAUNCH_DATE":"2020-06-13","OBJECT_TYPE":"PAYLOAD","MEAN_ANOMALY":"305.0347","ELEMENT_SET_NO":"999","COUNTRY_CODE":"US","INCLINATION":"53.0544","TIME_SYSTEM":"UTC","APOAPSIS":"548.366","EPHEMERIS_TYPE":"0","RCS_SIZE":"LARGE","CLASSIFICATION_TYPE":"U","SITE":"AFETR","PERIAPSIS":"546.125","TLE_LINE1":"1 45777U 20038AZ  22150.80889025 -.00001125  00000-0 -56665-4 0  9996","BSTAR":"-0.00005666500000","TLE_LINE2":"2 45777  53.0544 266.6682 0001618  55.0794 305.0347 15.06389649108939","OBJECT_NAME":"STARLINK-1490","OBJECT_ID":"2020-038AZ","REF_FRAME":"TEME","GP_ID":"204976313","MEAN_MOTION_DOT":"-0.00001125","DECAY_DATE":null,"REV_AT_EPOCH":"10893","FILE":"3472994","CENTER_NAME":"EARTH","ARG_OF_PERICENTER":"55.0794","MEAN_MOTION":"15.06389649","SEMIMAJOR_AXIS":"6925.380"},{"CENTER_NAME":"EARTH","FILE":"3472994","SEMIMAJOR_AXIS":"6925.420","MEAN_MOTION":"15.06376684","ARG_OF_PERICENTER":"85.2045","OBJECT_ID":"2020-038BA","OBJECT_NAME":"STARLINK-1491","BSTAR":"-0.00019420000000","TLE_LINE2":"2 45778  53.0536 267.0297 0001306  85.2045 274.9093 15.06376684108900","REV_AT_EPOCH":"10890","DECAY_DATE":null,"MEAN_MOTION_DOT":"-0.00003171","GP_ID":"204976563","REF_FRAME":"TEME","RCS_SIZE":"LARGE","EPHEMERIS_TYPE":"0","TIME_SYSTEM":"UTC","APOAPSIS":"548.189","INCLINATION":"53.0536","COUNTRY_CODE":"US","ELEMENT_SET_NO":"999","MEAN_ANOMALY":"274.9093","LAUNCH_DATE":"2020-06-13","OBJECT_TYPE":"PAYLOAD","TLE_LINE1":"1 45778U 20038BA  22150.72412075 -.00003171  00000-0 -19420-3 0  9995","PERIAPSIS":"546.381","CLASSIFICATION_TYPE":"U","SITE":"AFETR","EPOCH":"2022-05-30T17:22:44.032800","PERIOD":"95.594","MEAN_ELEMENT_THEORY":"SGP4","MEAN_MOTION_DDOT":"0.0000000000000","RA_OF_ASC_NODE":"267.0297","NORAD_CAT_ID":"45778","ECCENTRICITY":"0.00013060"},{"PERIOD":"95.593","EPOCH":"2022-05-30T15:41:52.854144","NORAD_CAT_ID":"45779","RA_OF_ASC_NODE":"267.3432","ECCENTRICITY":"0.00015230","MEAN_MOTION_DDOT":"0.0000000000000","MEAN_ELEMENT_THEORY":"SGP4","INCLINATION":"53.0558","COUNTRY_CODE":"US","APOAPSIS":"548.316","TIME_SYSTEM":"UTC","LAUNCH_DATE":"2020-06-13","OBJECT_TYPE":"PAYLOAD","MEAN_ANOMALY":"301.6530","ELEMENT_SET_NO":"999","RCS_SIZE":"LARGE","EPHEMERIS_TYPE":"0","PERIAPSIS":"546.206","TLE_LINE1":"1 45779U 20038BB  22150.65408396 -.00001995  00000-0 -11512-3 0  9995","SITE":"AFETR","CLASSIFICATION_TYPE":"U","TLE_LINE2":"2 45779  53.0558 267.3432 0001523  58.4607 301.6530 15.06384487108898","BSTAR":"-0.00011512000000","OBJECT_ID":"2020-038BB","OBJECT_NAME":"STARLINK-1492","GP_ID":"204974816","REF_FRAME":"TEME","DECAY_DATE":null,"REV_AT_EPOCH":"10889","MEAN_MOTION_DOT":"-0.00001995","FILE":"3472994","CENTER_NAME":"EARTH","ARG_OF_PERICENTER":"58.4607","SEMIMAJOR_AXIS":"6925.396","MEAN_MOTION":"15.06384487"},{"RA_OF_ASC_NODE":"267.3088","NORAD_CAT_ID":"45780","ECCENTRICITY":"0.00015900","MEAN_ELEMENT_THEORY":"SGP4","MEAN_MOTION_DDOT":"0.0000000000000","EPOCH":"2022-05-30T15:57:48.389760","PERIOD":"95.593","TLE_LINE1":"1 45780U 20038BC  22150.66514340 -.00002200  00000-0 -12889-3 0  9993","PERIAPSIS":"546.170","SITE":"AFETR","CLASSIFICATION_TYPE":"U","TIME_SYSTEM":"UTC","APOAPSIS":"548.373","INCLINATION":"53.0535","COUNTRY_CODE":"US","MEAN_ANOMALY":"299.5813","ELEMENT_SET_NO":"999","OBJECT_TYPE":"PAYLOAD","LAUNCH_DATE":"2020-06-13","RCS_SIZE":"LARGE","EPHEMERIS_TYPE":"0","GP_ID":"204975565","REF_FRAME":"TEME","REV_AT_EPOCH":"10889","DECAY_DATE":null,"MEAN_MOTION_DOT":"-0.00002200","TLE_LINE2":"2 45780  53.0535 267.3088 0001590  60.5335 299.5813 15.06381114108891","BSTAR":"-0.00012889000000","OBJECT_ID":"2020-038BC","OBJECT_NAME":"STARLINK-1496","ARG_OF_PERICENTER":"60.5335","SEMIMAJOR_AXIS":"6925.406","MEAN_MOTION":"15.06381114","FILE":"3472994","CENTER_NAME":"EARTH"},{"GP_ID":"204975814","REF_FRAME":"TEME","DECAY_DATE":null,"REV_AT_EPOCH":"10890","MEAN_MOTION_DOT":"-0.00389852","TLE_LINE2":"2 45781  53.0541 267.1933 0007825   2.8855 357.2177 15.05025652108907","BSTAR":"-0.02863200000000","OBJECT_ID":"2020-038BD","OBJECT_NAME":"STARLINK-1497","ARG_OF_PERICENTER":"2.8855","SEMIMAJOR_AXIS":"6929.564","MEAN_MOTION":"15.05025652","FILE":"3472994","CENTER_NAME":"EARTH","NORAD_CAT_ID":"45781","RA_OF_ASC_NODE":"267.1933","ECCENTRICITY":"0.00078250","MEAN_ELEMENT_THEORY":"SGP4","MEAN_MOTION_DDOT":"0.0000000000000","PERIOD":"95.679","EPOCH":"2022-05-30T16:35:43.762272","PERIAPSIS":"546.007","TLE_LINE1":"1 45781U 20038BD  22150.69147873 -.00389852  00000-0 -28632-1 0  9992","SITE":"AFETR","CLASSIFICATION_TYPE":"U","COUNTRY_CODE":"US","INCLINATION":"53.0541","APOAPSIS":"556.851","TIME_SYSTEM":"UTC","OBJECT_TYPE":"PAYLOAD","LAUNCH_DATE":"2020-06-13","MEAN_ANOMALY":"357.2177","ELEMENT_SET_NO":"999","RCS_SIZE":"LARGE","EPHEMERIS_TYPE":"0"}];
